{
  "type": "FeatureCollection",
  "features": [
    {
      "type": "Feature",
      "properties": {
        "norad_id": 40223,
        "name": "COSMOS 2251 DEB",
        "group": "cosmos-2251-debris",
        "lat": 42.037493816487356,
        "lon": 94.06334603321811,
        "alt_km": 555.6587051223032,
        "timestamp": "2025-12-17T10:52:54.750730+00:00",
        "meta_object_name": "COSMOS 2251 DEB",
        "meta_object_id": "1993-036BVC",
        "meta_epoch": "2025-12-16T06:05:42.901728",
        "meta_mean_motion": 15.04017245,
        "meta_eccentricity": 0.00151313,
        "meta_inclination": 73.9375,
        "meta_ra_of_asc_node": 81.4737,
        "meta_arg_of_pericenter": 287.2028,
        "meta_mean_anomaly": 105.0934,
        "meta_ephemeris_type": 0,
        "meta_classification_type": "U",
        "meta_norad_cat_id": 40223,
        "meta_element_set_no": 999,
        "meta_rev_at_epoch": 59427,
        "meta_bstar": 0.0031787319,
        "meta_mean_motion_dot": 0.00044299,
        "meta_mean_motion_ddot": 0,
        "tle_line1": "1 40223U 93036BVC 25350.25396877  .00044299  00000+0  31787-2 0  9999",
        "tle_line2": "2 40223  73.9375  81.4737 0015131 287.2028 105.0934 15.04017245594275"
      },
      "geometry": {
        "type": "Point",
        "coordinates": [
          94.06334603321811,
          42.037493816487356
        ]
      }
    },
    {
      "type": "Feature",
      "properties": {
        "norad_id": 40228,
        "name": "COSMOS 2251 DEB",
        "group": "cosmos-2251-debris",
        "lat": -20.343272833205333,
        "lon": -114.27001419569383,
        "alt_km": 744.6032529693175,
        "timestamp": "2025-12-17T10:52:54.750740+00:00",
        "meta_object_name": "COSMOS 2251 DEB",
        "meta_object_id": "1993-036BVH",
        "meta_epoch": "2025-12-16T12:28:36.365376",
        "meta_mean_motion": 14.41001864,
        "meta_eccentricity": 0.00241346,
        "meta_inclination": 74.0547,
        "meta_ra_of_asc_node": 253.54,
        "meta_arg_of_pericenter": 314.4543,
        "meta_mean_anomaly": 223.4241,
        "meta_ephemeris_type": 0,
        "meta_classification_type": "U",
        "meta_norad_cat_id": 40228,
        "meta_element_set_no": 999,
        "meta_rev_at_epoch": 58975,
        "meta_bstar": 0.00028514668,
        "meta_mean_motion_dot": 8.93e-06,
        "meta_mean_motion_ddot": 0,
        "tle_line1": "1 40228U 93036BVH 25350.51986534  .00000893  00000+0  28515-3 0  9996",
        "tle_line2": "2 40228  74.0547 253.5400 0024134 314.4543 223.4241 14.41001864589753"
      },
      "geometry": {
        "type": "Point",
        "coordinates": [
          -114.27001419569383,
          -20.343272833205333
        ]
      }
    },
    {
      "type": "Feature",
      "properties": {
        "norad_id": 40230,
        "name": "COSMOS 2251 DEB",
        "group": "cosmos-2251-debris",
        "lat": -69.6724582518142,
        "lon": 167.48535534370012,
        "alt_km": 721.2130914349773,
        "timestamp": "2025-12-17T10:52:54.750750+00:00",
        "meta_object_name": "COSMOS 2251 DEB",
        "meta_object_id": "1993-036BVK",
        "meta_epoch": "2025-12-14T22:00:49.266432",
        "meta_mean_motion": 14.49332961,
        "meta_eccentricity": 0.00191764,
        "meta_inclination": 74.0428,
        "meta_ra_of_asc_node": 222.8045,
        "meta_arg_of_pericenter": 280.5439,
        "meta_mean_anomaly": 94.8076,
        "meta_ephemeris_type": 0,
        "meta_classification_type": "U",
        "meta_norad_cat_id": 40230,
        "meta_element_set_no": 999,
        "meta_rev_at_epoch": 59003,
        "meta_bstar": 0.00050113522,
        "meta_mean_motion_dot": 1.891e-05,
        "meta_mean_motion_ddot": 0,
        "tle_line1": "1 40230U 93036BVK 25348.91723688  .00001891  00000+0  50114-3 0  9998",
        "tle_line2": "2 40230  74.0428 222.8045 0019176 280.5439  94.8076 14.49332961590037"
      },
      "geometry": {
        "type": "Point",
        "coordinates": [
          167.48535534370012,
          -69.6724582518142
        ]
      }
    },
    {
      "type": "Feature",
      "properties": {
        "norad_id": 40233,
        "name": "COSMOS 2251 DEB",
        "group": "cosmos-2251-debris",
        "lat": -71.89005156564463,
        "lon": -24.178610306330775,
        "alt_km": 706.8526316102261,
        "timestamp": "2025-12-17T10:52:54.750760+00:00",
        "meta_object_name": "COSMOS 2251 DEB",
        "meta_object_id": "1993-036BVN",
        "meta_epoch": "2025-12-16T00:45:52.214112",
        "meta_mean_motion": 14.58458772,
        "meta_eccentricity": 0.0044987,
        "meta_inclination": 73.9406,
        "meta_ra_of_asc_node": 96.8035,
        "meta_arg_of_pericenter": 171.0622,
        "meta_mean_anomaly": 189.1354,
        "meta_ephemeris_type": 0,
        "meta_classification_type": "U",
        "meta_norad_cat_id": 40233,
        "meta_element_set_no": 999,
        "meta_rev_at_epoch": 59185,
        "meta_bstar": 0.00091306486,
        "meta_mean_motion_dot": 4.268e-05,
        "meta_mean_motion_ddot": 0,
        "tle_line1": "1 40233U 93036BVN 25350.03185433  .00004268  00000+0  91306-3 0  9996",
        "tle_line2": "2 40233  73.9406  96.8035 0044987 171.0622 189.1354 14.58458772591855"
      },
      "geometry": {
        "type": "Point",
        "coordinates": [
          -24.178610306330775,
          -71.89005156564463
        ]
      }
    },
    {
      "type": "Feature",
      "properties": {
        "norad_id": 40236,
        "name": "COSMOS 2251 DEB",
        "group": "cosmos-2251-debris",
        "lat": -23.609548630130394,
        "lon": -36.245204660254394,
        "alt_km": 1571.9643517724662,
        "timestamp": "2025-12-17T10:52:54.750770+00:00",
        "meta_object_name": "COSMOS 2251 DEB",
        "meta_object_id": "1993-036BVR",
        "meta_epoch": "2025-12-07T17:52:23.026080",
        "meta_mean_motion": 13.24639967,
        "meta_eccentricity": 0.05366128,
        "meta_inclination": 73.5349,
        "meta_ra_of_asc_node": 151.6266,
        "meta_arg_of_pericenter": 32.3576,
        "meta_mean_anomaly": 330.9258,
        "meta_ephemeris_type": 0,
        "meta_classification_type": "U",
        "meta_norad_cat_id": 40236,
        "meta_element_set_no": 999,
        "meta_rev_at_epoch": 53558,
        "meta_bstar": 0.0015786255,
        "meta_mean_motion_dot": 1.455e-05,
        "meta_mean_motion_ddot": 0,
        "tle_line1": "1 40236U 93036BVR 25341.74471095  .00001455  00000+0  15786-2 0  9991",
        "tle_line2": "2 40236  73.5349 151.6266 0536612  32.3576 330.9258 13.24639967535580"
      },
      "geometry": {
        "type": "Point",
        "coordinates": [
          -36.245204660254394,
          -23.609548630130394
        ]
      }
    },
    {
      "type": "Feature",
      "properties": {
        "norad_id": 40238,
        "name": "COSMOS 2251 DEB",
        "group": "cosmos-2251-debris",
        "lat": -54.681729278017215,
        "lon": 32.45506896880737,
        "alt_km": 1115.4051552103047,
        "timestamp": "2025-12-17T10:52:54.750781+00:00",
        "meta_object_name": "COSMOS 2251 DEB",
        "meta_object_id": "1993-036BVT",
        "meta_epoch": "2025-12-13T22:00:17.688960",
        "meta_mean_motion": 13.25118761,
        "meta_eccentricity": 0.05494159,
        "meta_inclination": 73.9889,
        "meta_ra_of_asc_node": 61.7905,
        "meta_arg_of_pericenter": 33.3831,
        "meta_mean_anomaly": 330.0665,
        "meta_ephemeris_type": 0,
        "meta_classification_type": "U",
        "meta_norad_cat_id": 40238,
        "meta_element_set_no": 999,
        "meta_rev_at_epoch": 54052,
        "meta_bstar": 0.0015955991,
        "meta_mean_motion_dot": 1.546e-05,
        "meta_mean_motion_ddot": 0,
        "tle_line1": "1 40238U 93036BVT 25347.91687140  .00001546  00000+0  15956-2 0  9998",
        "tle_line2": "2 40238  73.9889  61.7905 0549415  33.3831 330.0665 13.25118761540524"
      },
      "geometry": {
        "type": "Point",
        "coordinates": [
          32.45506896880737,
          -54.681729278017215
        ]
      }
    },
    {
      "type": "Feature",
      "properties": {
        "norad_id": 40239,
        "name": "COSMOS 2251 DEB",
        "group": "cosmos-2251-debris",
        "lat": -72.83115592288684,
        "lon": -161.12705959276738,
        "alt_km": 704.109373158688,
        "timestamp": "2025-12-17T10:52:54.750791+00:00",
        "meta_object_name": "COSMOS 2251 DEB",
        "meta_object_id": "1993-036BVU",
        "meta_epoch": "2025-12-10T14:12:54.993024",
        "meta_mean_motion": 14.6197936,
        "meta_eccentricity": 0.0084758,
        "meta_inclination": 74.0316,
        "meta_ra_of_asc_node": 279.9471,
        "meta_arg_of_pericenter": 31.8637,
        "meta_mean_anomaly": 148.8031,
        "meta_ephemeris_type": 0,
        "meta_classification_type": "U",
        "meta_norad_cat_id": 40239,
        "meta_element_set_no": 999,
        "meta_rev_at_epoch": 59579,
        "meta_bstar": 0.00074089,
        "meta_mean_motion_dot": 3.879e-05,
        "meta_mean_motion_ddot": 0,
        "tle_line1": "1 40239U 93036BVU 25344.59230316  .00003879  00000+0  74089-3 0  9993",
        "tle_line2": "2 40239  74.0316 279.9471 0084758  31.8637 148.8031 14.61979360595796"
      },
      "geometry": {
        "type": "Point",
        "coordinates": [
          -161.12705959276738,
          -72.83115592288684
        ]
      }
    }
  ]
}